line1,line2,validFromUtcTime
1 00000U 00000E   26001.00000000  .00000000  00000-0  27772-4 0    01,2 00000  88.8959 135.3351 0010094 270.3215 247.0771 13.55319154    09,2026-01-01T00:00:00Z
1 00000U 00000E   26002.00000000  .00000000  00000-0  27772-4 0    02,2 00000  88.8959 135.2227 0010094 267.4113  86.2245 13.55319193    06,2026-01-02T00:00:00Z
